H1 CPF  1  HTS 2022  7 23 12  7041 larets           NONE
H2  0304206 5557    27944 2022 07 23  0  0  0 2022 07 28  0  0  0   180 1 1  0 0 0
H5  0.0560 
H9 
10 0 59786   9000.00000  0   -6171268.082      86783.514    3407886.112
10 0 59786   9180.00000  0   -6693478.068     401885.602    2183110.458
10 0 59786   9360.00000  0   -6962707.872     712681.829     877918.904
10 0 59786   9540.00000  0   -6969539.874    1001051.272    -459606.976
10 0 59786   9720.00000  0   -6714747.861    1249604.171   -1780233.299
10 0 59786   9900.00000  0   -6209207.862    1442594.522   -3035456.748
10 0 59786  10080.00000  0   -5473383.286    1566757.070   -4179344.054
10 0 59786  10260.00000  0   -4536407.297    1612020.272   -5170240.365
10 0 59786  10440.00000  0   -3434832.426    1572061.393   -5972266.748
10 0 59786  10620.00000  0   -2211126.193    1444682.016   -6556562.340
10 0 59786  10800.00000  0    -911986.758    1231992.311   -6902245.784
10 0 59786  10980.00000  0     413449.649     940402.395   -6997076.838
10 0 59786  11160.00000  0    1715438.131     580425.084   -6837825.781
10 0 59786  11340.00000  0    2945450.710     166296.955   -6430358.041
10 0 59786  11520.00000  0    4057945.184    -284571.803   -5789423.089
10 0 59786  11700.00000  0    5012022.518    -752301.454   -4938157.511
10 0 59786  11880.00000  0    5772929.998   -1215379.947   -3907312.817
10 0 59786  12060.00000  0    6313358.939   -1651605.623   -2734208.676
10 0 59786  12240.00000  0    6614477.645   -2039098.621   -1461432.685
10 0 59786  12420.00000  0    6666648.556   -2357336.419    -135320.879
10 0 59786  12600.00000  0    6469786.950   -2588162.009    1195729.117
10 0 59786  12780.00000  0    6033334.862   -2716712.903    2483048.473
10 0 59786  12960.00000  0    5375841.269   -2732220.959    3679513.294
10 0 59786  13140.00000  0    4524167.336   -2628638.271    4741301.776
10 0 59786  13320.00000  0    3512364.807   -2405057.703    5629514.892
10 0 59786  13500.00000  0    2380281.470   -2065911.155    6311604.928
10 0 59786  13680.00000  0    1171959.226   -1620932.297    6762552.632
10 0 59786  13860.00000  0     -66099.462   -1084889.635    6965764.010
10 0 59786  14040.00000  0   -1286730.822    -477097.694    6913664.804
10 0 59786  14220.00000  0   -2443908.043     179277.005    6607982.567
10 0 59786  14400.00000  0   -3494483.394     858094.876    6059712.988
10 0 59786  14580.00000  0   -4399821.017    1531279.866    5288765.505
10 0 59786  14760.00000  0   -5127265.396    2169978.947    4323285.531
10 0 59786  14940.00000  0   -5651383.137    2745803.183    3198658.354
10 0 59786  15120.00000  0   -5954917.230    3232094.426    1956220.730
10 0 59786  15300.00000  0   -6029410.019    3605158.446     641722.311
10 0 59786  15480.00000  0   -5875453.774    3845399.543    -696412.179
10 0 59786  15660.00000  0   -5502548.813    3938289.997   -2008937.079
10 0 59786  15840.00000  0   -4928578.632    3875124.170   -3247672.408
10 0 59786  16020.00000  0   -4178926.444    3653512.721   -4367327.936
10 0 59786  16200.00000  0   -3285295.518    3277597.076   -5327174.027
10 0 59786  16380.00000  0   -2284310.106    2757984.783   -6092493.989
10 0 59786  16560.00000  0   -1215974.331    2111420.057   -6635779.514
10 0 59786  16740.00000  0    -122054.923    1360207.821   -6937640.100
10 0 59786  16920.00000  0     955538.773     531423.704   -6987414.059
10 0 59786  17100.00000  0    1976327.404    -344059.516   -6783489.581
10 0 59786  17280.00000  0    2902745.576   -1232703.493   -6333331.292
10 0 59786  17460.00000  0    3701490.817   -2099558.032   -5653217.696
10 0 59786  17640.00000  0    4344706.037   -2909603.071   -4767699.074
10 0 59786  17820.00000  0    4810960.564   -3629144.840   -3708773.564
10 0 59786  18000.00000  0    5085987.519   -4227208.250   -2514792.982
10 0 59786  18180.00000  0    5163152.318   -4676870.424   -1229123.181
10 0 59786  18360.00000  0    5043621.506   -4956474.419     101408.737
10 0 59786  18540.00000  0    4736212.387   -5050659.879    1428226.688
10 0 59786  18720.00000  0    4256924.572   -4951148.623    2702807.732
10 0 59786  18900.00000  0    3628173.913   -4657241.483    3878491.260
10 0 59786  19080.00000  0    2877769.350   -4176001.881    4912216.560
10 0 59786  19260.00000  0    2037684.152   -3522113.927    5766115.198
10 0 59786  19440.00000  0    1142685.459   -2717425.245    6408896.287
10 0 59786  19620.00000  0     228884.690   -1790196.733    6816976.046
10 0 59786  19800.00000  0    -667724.884    -774095.857    6975320.013
10 0 59786  19980.00000  0   -1512685.733     293031.740    6877985.473
10 0 59786  20160.00000  0   -2274403.469    1370572.929    6528350.503
10 0 59786  20340.00000  0   -2925340.039    2416693.554    5939021.890
10 0 59786  20520.00000  0   -3443032.196    3389971.705    5131421.397
10 0 59786  20700.00000  0   -3810901.485    4251063.677    4135051.743
10 0 59786  20880.00000  0   -4018820.812    4964337.540    2986449.914
10 0 59786  21060.00000  0   -4063406.538    5499401.257    1727850.791
10 0 59786  21240.00000  0   -3948016.192    5832443.003     405605.390
10 0 59786  21420.00000  0   -3682453.093    5947315.236    -931578.722
10 0 59786  21600.00000  0   -3282387.764    5836301.097   -2234507.682
10 0 59786  21780.00000  0   -2768520.253    5500509.381   -3455386.360
10 0 59786  21960.00000  0   -2165538.413    4949886.799   -4549616.072
10 0 59786  22140.00000  0   -1500940.180    4202858.525   -5477429.280
10 0 59786  22320.00000  0    -803783.661    3285633.273   -6205298.697
10 0 59786  22500.00000  0    -103424.730    2231214.194   -6707088.305
10 0 59786  22680.00000  0     571702.604    1078162.477   -6964911.406
10 0 59786  22860.00000  0    1195212.826    -130825.935   -6969692.232
10 0 59786  23040.00000  0    1743771.167   -1350485.934   -6721432.143
10 0 59786  23220.00000  0    2197939.416   -2534641.797   -6229180.885
10 0 59786  23400.00000  0    2542847.231   -3637911.316   -5510727.077
10 0 59786  23580.00000  0    2768673.717   -4617420.585   -4592008.008
10 0 59786  23760.00000  0    2870919.769   -5434465.266   -3506232.141
10 0 59786  23940.00000  0    2850460.607   -6056057.240   -2292743.004
10 0 59786  24120.00000  0    2713376.012   -6456298.725    -995639.965
10 0 59786  24300.00000  0    2470559.538   -6617510.061     337808.426
10 0 59786  24480.00000  0    2137116.668   -6531042.746    1658899.799
10 0 59786  24660.00000  0    1731583.179   -6197733.192    2919307.236
10 0 59786  24840.00000  0    1274999.358   -5627963.351    4072884.809
10 0 59786  25020.00000  0     789890.299   -4841328.858    5077381.822
10 0 59786  25200.00000  0     299204.546   -3865937.361    5896001.489
10 0 59786  25380.00000  0    -174737.338   -2737364.054    6498745.376
10 0 59786  25560.00000  0    -611232.417   -1497317.846    6863490.086
10 0 59786  25740.00000  0    -992082.892    -192084.779    6976777.411
10 0 59786  25920.00000  0   -1302349.021    1129205.781    6834305.903
10 0 59786  26100.00000  0   -1530939.855    2416434.686    6441103.786
10 0 59786  26280.00000  0   -1671020.141    3620402.665    5811379.385
10 0 59786  26460.00000  0   -1720220.108    4694734.746    4968048.392
10 0 59786  26640.00000  0   -1680639.279    5597714.159    3941942.989
10 0 59786  26820.00000  0   -1558642.375    6293971.017    2770710.484
10 0 59786  27000.00000  0   -1364456.508    6755944.245    1497431.231
10 0 59786  27180.00000  0   -1111581.548    6965043.019     169000.222
10 0 59786  27360.00000  0    -816041.506    6912438.961   -1165658.520
10 0 59786  27540.00000  0    -495519.033    6599444.070   -2457470.735
10 0 59786  27720.00000  0    -168422.851    6037438.962   -3659085.943
10 0 59786  27900.00000  0     147056.643    5247379.329   -4726646.949
10 0 59786  28080.00000  0     433858.329    4258921.399   -5621390.707
10 0 59786  28260.00000  0     676882.821    3109216.389   -6311019.714
10 0 59786  28440.00000  0     863705.958    1841440.096   -6770801.289
10 0 59786  28620.00000  0     985145.431     503133.805   -6984371.800
10 0 59786  28800.00000  0    1035662.977    -855576.970   -6944246.056
10 0 59786  28980.00000  0    1013590.536   -2183830.568   -6652029.162
10 0 59786  29160.00000  0     921177.174   -3431883.488   -6118338.390
10 0 59786  29340.00000  0     764457.769   -4552932.711   -5362448.047
10 0 59786  29520.00000  0     552945.645   -5504854.566   -4411645.272
10 0 59786  29700.00000  0     299161.049   -6251798.778   -3300310.533
10 0 59786  29880.00000  0      18009.395   -6765580.445   -2068734.056
10 0 59786  30060.00000  0    -273964.865   -7026805.838    -761695.497
10 0 59786  30240.00000  0    -559416.981   -7025670.390     573154.263
10 0 59786  30420.00000  0    -821093.082   -6762378.042    1887044.238
10 0 59786  30600.00000  0   -1042729.042   -6247157.642    3131896.827
10 0 59786  30780.00000  0   -1209907.822   -5499863.926    4262126.159
10 0 59786  30960.00000  0   -1310829.504   -4549181.900    5236332.594
10 0 59786  31140.00000  0   -1336958.149   -3431487.112    6018825.629
10 0 59786  31320.00000  0   -1283513.059   -2189411.677    6580925.439
10 0 59786  31500.00000  0   -1149779.585    -870185.676    6901990.182
10 0 59786  31680.00000  0    -939232.285     476171.786    6970155.172
10 0 59786  31860.00000  0    -659464.923    1798754.944    6782766.217
10 0 59786  32040.00000  0    -321921.138    3047702.145    6346496.640
10 0 59786  32220.00000  0      58564.623    4176091.491    5677140.222
10 0 59786  32400.00000  0     464398.588    5141738.054    4799080.787
10 0 59786  32580.00000  0     876012.683    5908828.734    3744443.329
10 0 59786  32760.00000  0    1272769.386    6449322.191    2551942.811
10 0 59786  32940.00000  0    1633953.621    6744060.808    1265459.876
10 0 59786  33120.00000  0    1939795.207    6783509.823     -67621.770
10 0 59786  33300.00000  0    2172467.548    6568083.435   -1398224.938
99
